0 COSMOS 1475
1 14173U 83069C   13281.57114515 -.00000003  00000-0  79266-4 0  2470
2 14173 074.0252 246.7795 0022635 267.3713 210.7046 12.54510266385980
0 COSMOS 1475
1 14173U 83069C   13283.95731043 -.00000038  00000-0 -13674-3 0  2485
2 14173 074.0256 243.5796 0022592 263.9350 187.0123 12.54510538386289
0 COSMOS 1475
1 14173U 83069C   13286.19357273 -.00000040  00000-0 -14899-3 0  2497
2 14173 074.0259 240.5828 0022599 260.5175 206.5342 12.54510670386568
0 COSMOS 1475
1 14173U 83069C   13288.33920384 -.00000012  00000-0  23687-4 0  2500
2 14173 074.0264 237.7066 0022573 257.3488 176.6338 12.54510429386833
0 COSMOS 1475
1 14173U 83069C   13290.58037164  .00000014  00000-0  18464-3 0  2513
2 14173 074.0266 234.7026 0022558 254.0443 218.1896 12.54510189387112
0 COSMOS 1475
1 14173U 83069C   13292.79368475  .00000015  00000-0  19381-3 0  2521
2 14173 074.0266 231.7362 0022532 250.7664 133.9595 12.54510258387399
0 COSMOS 1475
1 14173U 83069C   13295.20425014 -.00000008  00000-0  50994-4 0  2533
2 14173 074.0266 228.5054 0022484 247.2030 220.5543 12.54510496387698
